NORAD_CAT_ID,OBJECT_NAME,OBJECT_TYPE,EPOCH,MEAN_MOTION,ECCENTRICITY,INCLINATION,RA_OF_ASC_NODE,ARG_OF_PERICENTER,MEAN_ANOMALY,BSTAR,MEAN_MOTION_DOT,MEAN_MOTION_DDOT,TLE_LINE0,TLE_LINE1,TLE_LINE2,SEMIMAJOR_AXIS,PERIOD,APOGEE,PERIGEE,DECAYED
44767,STARLINK-1062,PAYLOAD,2021-10-30 08:06:01,15.06391063,0.0001617,53.0534,170.4753,83.905,276.2124,4.2861e-05,3.57e-06,0.0,0 STARLINK-1062,1 44767U 19074BG  21303.33752202  .00000357  00000-0  42861-4 0  9992,2 44767  53.0534 170.4753 0001617  83.9050 276.2124 15.06391063108341,6925.376,95.593,548.361,546.121,0.0
44767,STARLINK-1062,PAYLOAD,2021-10-30 17:39:16,15.06394917,0.0001606,53.0532,168.6882,86.3353,273.7819,1.9504e-05,9e-08,0.0,0 STARLINK-1062,1 44767U 19074BG  21303.73560296  .00000009  00000-0  19504-4 0  9998,2 44767  53.0532 168.6882 0001606  86.3353 273.7819 15.06394917108571,6925.364000000001,95.592,548.341,546.117,0.0
44767,STARLINK-1062,PAYLOAD,2021-10-31 07:59:07,15.06400686,0.0001626,53.0532,166.0078,86.6118,273.5057,6.408600000000001e-05,6.73e-06,0.0,0 STARLINK-1062,1 44767U 19074BG  21304.33272053  .00000673  00000-0  64086-4 0  9998,2 44767  53.0532 166.0078 0001626  86.6118 273.5057 15.06400686108498,6925.346,95.592,548.3380000000002,546.085,0.0
44767,STARLINK-1062,PAYLOAD,2021-10-31 17:32:21,15.06398392,0.0001616,53.0532,164.2207,87.4185,272.6989,0.0001661,2.193e-05,0.0,0 STARLINK-1062,1 44767U 19074BG  21304.73080122  .00002193  00000-0  16610-3 0  9994,2 44767  53.0532 164.2207 0001616  87.4185 272.6989 15.06398392108555,6925.353,95.592,548.3380000000002,546.099,0.0
44767,STARLINK-1062,PAYLOAD,2021-10-31 23:54:30,15.06402616,0.0001621,53.0531,163.0292,87.2419,272.8755,0.00017529,2.331e-05,0.0,0 STARLINK-1062,1 44767U 19074BG  21304.99618560  .00002331  00000-0  17529-3 0  9999,2 44767  53.0531 163.0292 0001621  87.2419 272.8755 15.06402616108760,6925.340999999999,95.592,548.328,546.0830000000002,0.0
44767,STARLINK-1062,PAYLOAD,2021-11-01 07:52:12,15.06405897,0.0001629999999999,53.0532,161.54,87.1238,272.9937,0.00018433,2.466e-05,0.0,0 STARLINK-1062,1 44767U 19074BG  21305.32791669  .00002466  00000-0  18433-3 0  9993,2 44767  53.0532 161.5400 0001630  87.1238 272.9937 15.06405897108647,6925.33,95.592,548.3240000000002,546.067,0.0
44767,STARLINK-1062,PAYLOAD,2021-11-01 17:25:26,15.06398047,0.0001669,53.0532,159.7529,88.1924,271.9256,6.7004e-05,7.17e-06,0.0,0 STARLINK-1062,1 44767U 19074BG  21305.72600526  .00000717  00000-0  67004-4 0  9994,2 44767  53.0532 159.7529 0001669  88.1924 271.9256 15.06398047108879,6925.355,95.592,548.375,546.064,0.0
44767,STARLINK-1062,PAYLOAD,2021-11-01 20:36:31,15.0639665,0.0001671,53.0531,159.1571,87.7826,272.3354,5.1027e-05,4.78e-06,0.0,0 STARLINK-1062,1 44767U 19074BG  21305.85870014  .00000478  00000-0  51027-4 0  9991,2 44767  53.0531 159.1571 0001671  87.7826 272.3354 15.06396650108724,6925.359,95.592,548.381,546.067,0.0
44767,STARLINK-1062,PAYLOAD,2021-11-02 07:45:18,15.06400759,0.0001634,53.0531,157.0717,88.6402,271.4774,4.959399999999999e-05,4.57e-06,0.0,0 STARLINK-1062,1 44767U 19074BG  21306.32312518  .00000457  00000-0  49594-4 0  9997,2 44767  53.0531 157.0717 0001634  88.6402 271.4774 15.06400759108791,6925.346,95.592,548.3430000000002,546.08,0.0
44767,STARLINK-1062,PAYLOAD,2021-11-03 01:16:14,15.06400303,0.0001624,53.053,153.7948,91.0512,269.0663,-1.8133e-05,-5.52e-06,0.0,0 STARLINK-1062,1 44767U 19074BG  21307.05294262 -.00000552  00000-0 -18133-4 0  9996,2 44767  53.0530 153.7948 0001624  91.0512 269.0663 15.06400303109075,6925.348000000001,95.592,548.337,546.0880000000002,0.0
44767,STARLINK-1062,PAYLOAD,2021-11-03 17:11:38,15.0638842,0.0001608,53.0528,150.8166,90.7561,269.3612,-1.8221e-05,-5.53e-06,0.0,0 STARLINK-1062,1 44767U 19074BG  21307.71641950 -.00000553  00000-0 -18221-4 0  9998,2 44767  53.0528 150.8166 0001608  90.7561 269.3612 15.06388420109177,6925.384,95.593,548.363,546.135,0.0
44767,STARLINK-1062,PAYLOAD,2021-11-03 20:22:43,15.0638726,0.0001524,53.0532,150.2213,87.2359,272.8805,4.1216e-07,-2.75e-06,0.0,0 STARLINK-1062,1 44767U 19074BG  21307.84911421 -.00000275  00000-0  41216-6 0  9997,2 44767  53.0532 150.2213 0001524  87.2359 272.8805 15.06387260109020,6925.388000000001,95.593,548.308,546.197,0.0
44767,STARLINK-1062,PAYLOAD,2021-11-03 21:58:15,15.0638812,0.0001514,53.0533,149.9235,87.0337,273.0825,6.3663e-06,-1.87e-06,0.0,0 STARLINK-1062,1 44767U 19074BG  21307.91546067 -.00000187  00000-0  63663-5 0  9996,2 44767  53.0533 149.9235 0001514  87.0337 273.0825 15.06388120109035,6925.385,95.593,548.298,546.201,0.0
44767,STARLINK-1062,PAYLOAD,2021-11-04 21:51:21,15.06386702,0.0001437,53.0532,145.4557,88.8449,271.2705,0.00012122,1.524e-05,0.0,0 STARLINK-1062,1 44767U 19074BG  21308.91066469  .00001524  00000-0  12122-3 0  9997,2 44767  53.0532 145.4557 0001437  88.8449 271.2705 15.06386702109186,6925.389,95.593,548.249,546.259,0.0
44767,STARLINK-1062,PAYLOAD,2021-11-04 23:26:53,15.06387602,0.000144,53.0532,145.1576,89.87799999999999,270.2374,0.00012889,1.638e-05,0.0,0 STARLINK-1062,1 44767U 19074BG  21308.97701131  .00001638  00000-0  12889-3 0  9991,2 44767  53.0532 145.1576 0001440  89.8780 270.2374 15.06387602109368,6925.387,95.593,548.249,546.254,0.0
44767,STARLINK-1062,PAYLOAD,2021-11-05 05:49:03,15.06391324,0.0001446,53.0533,143.9663,90.0261,270.0894,0.00015378,2.009e-05,0.0,0 STARLINK-1062,1 44767U 19074BG  21309.24239744  .00002009  00000-0  15378-3 0  9997,2 44767  53.0533 143.9663 0001446  90.0261 270.0894 15.06391324109233,6925.375,95.593,548.242,546.239,0.0
44767,STARLINK-1062,PAYLOAD,2021-11-05 21:44:26,15.06396804,0.0001475,53.0533,140.9877,91.9907,268.1251,0.00016022,2.106e-05,0.0,0 STARLINK-1062,1 44767U 19074BG  21309.90586548  .00002106  00000-0  16022-3 0  9992,2 44767  53.0533 140.9877 0001475  91.9907 268.1251 15.06396804109330,6925.358,95.592,548.245,546.202,0.0
44767,STARLINK-1062,PAYLOAD,2021-11-06 12:04:18,15.06396784,0.0001463,53.0531,138.3071,91.6661,268.4495,6.3289e-05,6.61e-06,0.0,0 STARLINK-1062,1 44767U 19074BG  21310.50299122  .00000661  00000-0  63289-4 0  9991,2 44767  53.0531 138.3071 0001463  91.6661 268.4495 15.06396784109426,6925.358,95.592,548.237,546.21,0.0
44767,STARLINK-1062,PAYLOAD,2021-11-06 18:26:28,15.06390034,0.0001467,53.0537,137.1153,91.5511,268.5646,-1.0533e-05,-4.38e-06,0.0,0 STARLINK-1062,1 44767U 19074BG  21310.76838532 -.00000438  00000-0 -10533-4 0  9991,2 44767  53.0537 137.1153 0001467  91.5511 268.5646 15.06390034109631,6925.379,95.593,548.26,546.2280000000002,0.0
44767,STARLINK-1062,PAYLOAD,2021-11-07 05:35:15,15.06389945,0.0001449,53.0535,135.0304,92.5246,267.5909,-1.794e-05,-5.49e-06,0.0,0 STARLINK-1062,1 44767U 19074BG  21311.23281492 -.00000549  00000-0 -17940-4 0  9993,2 44767  53.0535 135.0304 0001449  92.5246 267.5909 15.06389945109539,6925.379,95.593,548.248,546.241,0.0
44767,STARLINK-1062,PAYLOAD,2021-11-07 21:30:38,15.06391958,0.000143,53.0533,132.0515,92.9299,267.1853,-3.0112e-05,-7.299999999999999e-06,0.0,0 STARLINK-1062,1 44767U 19074BG  21311.89628412 -.00000730  00000-0 -30112-4 0  9990,2 44767  53.0533 132.0515 0001430  92.9299 267.1853 15.06391958109632,6925.373000000001,95.593,548.229,546.248,0.0
44767,STARLINK-1062,PAYLOAD,2021-11-08 11:50:30,15.06385626,0.0001385999999999,53.0532,129.3711,93.667,266.4478,6.4019e-05,6.72e-06,0.0,0 STARLINK-1062,1 44767U 19074BG  21312.49340865  .00000672  00000-0  64019-4 0  9996,2 44767  53.0532 129.3711 0001386  93.6670 266.4478 15.06385626109729,6925.393,95.593,548.217,546.298,0.0
44767,STARLINK-1062,PAYLOAD,2021-11-08 15:01:35,15.06386849,0.0001389,53.0532,128.7755,93.4435,266.6713,7.2458e-05,7.98e-06,0.0,0 STARLINK-1062,1 44767U 19074BG  21312.62610217  .00000798  00000-0  72458-4 0  9997,2 44767  53.0532 128.7755 0001389  93.4435 266.6713 15.06386849109744,6925.389,95.593,548.216,546.2919999999998,0.0
44767,STARLINK-1062,PAYLOAD,2021-11-09 11:43:36,15.06391005,0.0001431,53.053,124.9034,92.7613,267.35400000000004,6.905399999999999e-05,7.47e-06,0.0,0 STARLINK-1062,1 44767U 19074BG  21313.48861327  .00000747  00000-0  69054-4 0  9994,2 44767  53.0530 124.9034 0001431  92.7613 267.3540 15.06391005110049,6925.376,95.593,548.232,546.25,0.0
44767,STARLINK-1062,PAYLOAD,2021-11-09 21:16:50,15.06392755,0.000138,53.0531,123.1164,93.7341,266.3806,6.015600000000001e-05,6.15e-06,0.0,0 STARLINK-1062,1 44767U 19074BG  21313.88669483  .00000615  00000-0  60156-4 0  9995,2 44767  53.0531 123.1164 0001380  93.7341 266.3806 15.06392755109930,6925.371,95.593,548.191,546.28,0.0
44767,STARLINK-1062,PAYLOAD,2021-11-10 17:58:51,15.06396838,0.0001356,53.0533,119.2441,94.2204,265.894,7.043199999999999e-05,7.68e-06,0.0,0 STARLINK-1062,1 44767U 19074BG  21314.74920254  .00000768  00000-0  70432-4 0  9994,2 44767  53.0533 119.2441 0001356  94.2204 265.8940 15.06396838110237,6925.358,95.592,548.1619999999998,546.284,0.0
44767,STARLINK-1062,PAYLOAD,2021-11-11 14:40:51,15.06400505,0.0001383,53.0532,115.3716,99.6236,260.4909,6.2271e-05,6.46e-06,0.0,0 STARLINK-1062,1 44767U 19074BG  21315.61170873  .00000646  00000-0  62271-4 0  9992,2 44767  53.0532 115.3716 0001383  99.6236 260.4909 15.06400505110190,6925.347,95.592,548.17,546.254,0.0
44767,STARLINK-1062,PAYLOAD,2021-11-11 17:51:56,15.06401449,0.0001335,53.0535,114.7763,92.4999,267.6143,8.3267e-05,9.59e-06,0.0,0 STARLINK-1062,1 44767U 19074BG  21315.74440144  .00000959  00000-0  83267-4 0  9992,2 44767  53.0535 114.7763 0001335  92.4999 267.6143 15.06401449110212,6925.344,95.592,548.134,546.285,0.0
44767,STARLINK-1062,PAYLOAD,2021-11-12 11:22:51,15.06404564,0.0001317,53.0535,111.4998,94.6316,265.4823,7.0945e-05,7.76e-06,0.0,0 STARLINK-1062,1 44767U 19074BG  21316.47421238  .00000776  00000-0  70945-4 0  9992,2 44767  53.0535 111.4998 0001317  94.6316 265.4823 15.06404564110495,6925.335,95.592,548.112,546.288,0.0
